STARLINK-30763          
1 58163U 23166P   26068.65380370  .00000919  00000+0  43178-4 0  9990
2 58163  53.1606 207.2059 0001285  82.0050 278.1096 15.30186508133346
2025-313BC              
1 67298U 25313BC  26068.18968176  .00075331  00000+0  26410-2 0  9997
2 67298  97.3985 144.8110 0008478 328.9209  31.1528 15.29126358  7890
